[{"OBJECT_NAME":"TRANSPORTER-12 OBJECT AZ","OBJECT_ID":"2025-009AZ","EPOCH":"2026-03-09T17:02:46.667040","MEAN_MOTION":15.30349724,"ECCENTRICITY":9.87e-5,"INCLINATION":97.3981,"RA_OF_ASC_NODE":151.9913,"ARG_OF_PERICENTER":45.3581,"MEAN_ANOMALY":314.774,"EPHEMERIS_TYPE":0,"CLASSIFICATION_TYPE":"U","NORAD_CAT_ID":62656,"ELEMENT_SET_NO":999,"REV_AT_EPOCH":6379,"BSTAR":0.00054902545,"MEAN_MOTION_DOT":0.00016057,"MEAN_MOTION_DDOT":0},{"OBJECT_NAME":"STARLINK-35536","OBJECT_ID":"2025-245AD","EPOCH":"2026-03-09T20:31:28.251840","MEAN_MOTION":15.30200965,"ECCENTRICITY":9.383e-5,"INCLINATION":53.1593,"RA_OF_ASC_NODE":282.9944,"ARG_OF_PERICENTER":105.4209,"MEAN_ANOMALY":254.6895,"EPHEMERIS_TYPE":0,"CLASSIFICATION_TYPE":"U","NORAD_CAT_ID":66261,"ELEMENT_SET_NO":999,"REV_AT_EPOCH":2128,"BSTAR":0.0011970875,"MEAN_MOTION_DOT":0.00035264,"MEAN_MOTION_DDOT":0}]
