TRANSPORTER-12 OBJECT AZ
1 62656U 25009AZ  26068.71026235  .00016057  00000+0  54903-3 0  9991
2 62656  97.3981 151.9913 0000987  45.3581 314.7740 15.30349724 63792
STARLINK-35536          
1 66261U 25245AD  26068.85518810  .00035264  00000+0  11971-2 0  9997
2 66261  53.1593 282.9944 0000938 105.4209 254.6895 15.30200965 21281
